STARLINK-11716 [DTC]    
1 64133U 25111L   25358.58072927  .00280104  00000+0  21053-2 0  9997
2 64133  42.9995  66.8271 0001792 292.4684  67.5993 15.70934097 34877
STARLINK-11714 [DTC]    
1 64134U 25111M   25358.53294632  .00286121  00000+0  21483-2 0  9994
2 64134  42.9999  66.4448 0001641 304.9981  55.0733 15.70941067 34820
STARLINK-11712 [DTC]    
1 64135U 25111N   25358.59134647  .00202479  00000+0  15386-2 0  9999
2 64135  42.9994  66.9147 0001065 291.2990  68.7764 15.70912554 34829
STARLINK-34254          
1 64136U 25111P   25358.80025487  .00059876  00000+0  21601-2 0  9993
2 64136  43.0054 140.4938 0003164 275.8563  84.1928 15.27693457 34016
STARLINK-34230          
1 64137U 25111Q   25358.66920301  .00063681  00000+0  20923-2 0  9992
2 64137  42.9993 141.2312 0003503 297.3875  62.6621 15.30707493 33991
STARLINK-34129          
1 64138U 25111R   25358.70932338  .00028314  00000+0  10334-2 0  9990
2 64138  42.9991 141.5346 0001246 276.4057  83.6653 15.27614045 34043
STARLINK-34212          
1 64139U 25111S   25358.81054647  .00023362  00000+0  85512-3 0  9990
2 64139  43.0017 140.5670 0001768 270.6793  89.3856 15.27606068 34017
STARLINK-34149          
1 64140U 25111T   25358.69007044  .00030395  00000+0  11084-2 0  9993
2 64140  42.9985 141.3811 0001808 272.9662  87.0983 15.27611221 33991
STARLINK-34054          
1 64141U 25111U   25358.75286961  .00029333  00000+0  10700-2 0  9992
2 64141  43.0009 140.9920 0001791 266.0574  94.0072 15.27615617 34007
STARLINK-34195          
1 64142U 25111V   25358.80670470  .00023006  00000+0  84355-3 0  9990
2 64142  43.0020 140.5366 0002206 276.1465  83.9135 15.27555503 34019
STARLINK-34133          
1 64143U 25111W   25358.67206435  .00035722  00000+0  13006-2 0  9994
2 64143  43.0001 141.2436 0001970 266.6174  93.4452 15.27598376 33992
STARLINK-34181          
1 64144U 25111X   25358.69390998  .00030830  00000+0  11242-2 0  9990
2 64144  43.0032 141.4130 0001149 271.3896  88.6824 15.27609369 33996
STARLINK-34186          
1 64145U 25111Y   25358.76828448  .00039472  00000+0  14339-2 0  9996
2 64145  42.9956 141.1100 0000208 274.1493  85.9334 15.27633652 34004
STARLINK-34314          
1 64146U 25112A   25358.70387793  .00006875  00000+0  48024-3 0  9995
2 64146  97.6036  47.5722 0001592  87.8648 272.2761 15.05648037 32022
STARLINK-33926          
1 64147U 25112B   25358.67895054  .00004814  00000+0  33759-3 0  9996
2 64147  97.6031  47.6059 0000905  78.6680 281.4648 15.05652266 32028
STARLINK-34213          
1 64148U 25112C   25358.64571324  .00004364  00000+0  30641-3 0  9992
2 64148  97.6037  47.4979 0000239 198.6180 161.5038 15.05656404 32010
STARLINK-33924          
1 64149U 25112D   25358.72048584  .00005760  00000+0  40314-3 0  9998
2 64149  97.6044  47.5542 0001485  90.9581 269.1816 15.05646496 32029
STARLINK-34209          
1 64150U 25112E   25358.67064169  .00004862  00000+0  34087-3 0  9993
2 64150  97.6061  47.6182 0000762 162.5926 197.5326 15.05656467 32026
STARLINK-34338          
1 64151U 25112F   25358.66233618  .00005981  00000+0  41821-3 0  9997
2 64151  97.6043  47.6270 0000585 151.0087 209.1173 15.05664956 32021
STARLINK-34348          
1 64152U 25112G   25358.69556050  .00005436  00000+0  38062-3 0  9997
2 64152  97.6046  47.5845 0001206  98.8025 261.3338 15.05652727 32029
STARLINK-34345          
1 64153U 25112H   25358.68725293  .00010454  00000+0  72753-3 0  9995
2 64153  97.6028  47.5931 0000251 303.2431  56.8771 15.05658343 32027
STARLINK-33945          
1 64154U 25112J   25358.14038011  .00057691  00000+0  14678-2 0  9997
2 64154  97.6044  54.9574 0002271 114.1621 245.9862 15.39394320 32453
STARLINK-34346          
1 64155U 25112K   25358.67341278  .00006416  00000+0  44832-3 0  9993
2 64155  97.6040  47.6224 0001116  84.6960 275.4395 15.05660631 32021
STARLINK-34277          
1 64156U 25112L   25358.70665300  .00010516  00000+0  73163-3 0  9998
2 64156  97.6037  47.5788 0000827 107.6815 252.4502 15.05665882 32023
STARLINK-34343          
1 64157U 25112M   25358.69002152  .00007675  00000+0  53543-3 0  9999
2 64157  97.6055  47.6022 0000321 150.0034 210.1211 15.05658740 32023
STARLINK-34166          
1 64158U 25112N   25358.65679047  .00004153  00000+0  29188-3 0  9995
2 64158  97.6052  47.4919 0001295  88.3313 271.8062 15.05650107 32014
STARLINK-34344          
1 64159U 25112P   25358.71497043  .00009229  00000+0  64296-3 0  9995
2 64159  97.6039  47.5685 0001287 104.8488 255.2881 15.05653118 32020
STARLINK-34339          
1 64160U 25112Q   25358.69834856 -.00004378  00000+0 -29947-3 0  9997
2 64160  97.6039  47.5897 0001430  80.0868 280.0520 15.05636710 32029
STARLINK-34341          
1 64161U 25112R   25358.68171874  .00007120  00000+0  49707-3 0  9993
2 64161  97.6033  47.6127 0000593  70.9616 289.1675 15.05655058 32026
STARLINK-34317          
1 64162U 25112S   25358.59864944  .00009135  00000+0  63639-3 0  9999
2 64162  97.6049  47.5703 0000702 106.8470 253.2834 15.05655018 32016
STARLINK-34340          
1 64163U 25112T   25358.64296610  .00013830  00000+0  96081-3 0  9999
2 64163  97.6029  47.5092 0000618 150.2955 209.8307 15.05649871 32015
STARLINK-34263          
1 64164U 25112U   25358.70109819  .00003383  00000+0  23852-3 0  9999
2 64164  97.6040  47.5854 0000438  90.6179 269.5098 15.05653037 32020
STARLINK-33793          
1 64165U 25112V   25358.69279125  .00007488  00000+0  52253-3 0  9993
2 64165  97.6042  47.5962 0000972  95.8775 264.2563 15.05656124 32024
STARLINK-34313          
1 64166U 25112W   25358.68448579  .00006136  00000+0  42906-3 0  9997
2 64166  97.6037  47.6095 0000522 132.1412 227.9859 15.05655460 32027
STARLINK-34309          
1 64167U 25112X   25358.67618191  .00006925  00000+0  48365-3 0  9997
2 64167  97.6033  47.6191 0000766 116.5698 243.5607 15.05653701 32024
STARLINK-34303          
1 64168U 25112Y   25358.73433559  .00002735  00000+0  19370-3 0  9997
2 64168  97.6044  47.6990 0001154  97.0598 263.0760 15.05652317 32038
STARLINK-34175          
1 64169U 25112Z   25358.71771118  .00001271  00000+0  92257-4 0  9992
2 64169  97.6037  47.5643 0001031 109.2643 250.8696 15.05650519 32029
STARLINK-34177          
1 64170U 25113A   25358.55775896  .00032768  00000+0  11136-2 0  9994
2 64170  53.1604  80.0096 0001296  76.6780 283.4365 15.30198844 33565
STARLINK-34228          
1 64171U 25113B   25358.21218922  .00038102  00000+0  12910-2 0  9999
2 64171  53.1587  81.4078 0001658  93.1898 266.9293 15.30223675 33519
STARLINK-34233          
1 64172U 25113C   25358.63679108  .00035410  00000+0  12015-2 0  9998
2 64172  53.1595  79.7884 0001247  79.5155 280.5987 15.30213800 33579
STARLINK-34172          
1 64173U 25113D   25358.67044687  .00020614  00000+0  70582-3 0  9995
2 64173  53.1594  79.2889 0001431  68.1589 291.9564 15.30217251 33547
STARLINK-34202          
1 64174U 25113E   25358.23751695  .00037108  00000+0  12578-2 0  9998
2 64174  53.1593  81.5622 0001888  92.8920 267.2297 15.30224706 33516
STARLINK-34231          
1 64175U 25113F   25358.64523260  .00031620  00000+0  10748-2 0  9999
2 64175  53.1584  79.8389 0001106  81.4449 278.6677 15.30210600 33572
STARLINK-34191          
1 64176U 25113G   25358.65672817  .00017779  00000+0  61101-3 0  9993
2 64176  53.1570  79.1959 0001086  95.9220 264.1905 15.30197149 33585
STARLINK-34164          
1 64177U 25113H   25358.65263076 -.00023427  00000+0 -78282-3 0  9994
2 64177  53.1580  79.8883 0000355 299.6787  60.4178 15.30139174 33571
STARLINK-34227          
1 64178U 25113J   25358.63256576  .00028740  00000+0  97802-3 0  9990
2 64178  53.1615  79.7594 0000389   8.9965 351.1043 15.30222959 33570
STARLINK-34194          
1 64179U 25113K   25358.53139632  .00066704  00000+0  22430-2 0  9999
2 64179  53.1580  79.8446 0001650 116.1079 244.0092 15.30216143 33560
STARLINK-34000          
1 64180U 25113L   25358.61779622  .00028847  00000+0  98216-3 0  9991
2 64180  53.1595  79.6684 0001033  75.7483 284.3633 15.30205046 33539
STARLINK-33917          
1 64181U 25113M   25358.64417742  .00041703  00000+0  14114-2 0  9997
2 64181  53.1587  79.8287 0001270  95.6566 264.4579 15.30219904 33578
STARLINK-34131          
1 64182U 25113N   25358.63045971  .00034040  00000+0  11556-2 0  9991
2 64182  53.1604  79.7436 0001434  75.7586 284.3574 15.30217078 33539
STARLINK-34188          
1 64183U 25113P   25358.64628691  .00027877  00000+0  94962-3 0  9992
2 64183  53.1584  79.8462 0001190  79.8337 280.2798 15.30206663 33570
STARLINK-34197          
1 64184U 25113Q   25358.51882126  .00020558  00000+0  70380-3 0  9991
2 64184  53.1578  80.4728 0001126  86.4658 273.6472 15.30222793 33551
STARLINK-34063          
1 64185U 25113R   25358.63573425  .00041919  00000+0  14185-2 0  9998
2 64185  53.1599  79.7768 0001238  85.7853 274.3290 15.30221381 33573
STARLINK-34200          
1 64186U 25113S   25358.61146440  .00033114  00000+0  11250-2 0  9998
2 64186  53.1595  79.6301 0001462  58.6060 301.5084 15.30205644 33578
STARLINK-33934          
1 64187U 25113T   25358.63995362  .00029786  00000+0  10133-2 0  9995
2 64187  53.1590  79.8039 0001216 111.8298 248.2832 15.30214491 33530
STARLINK-33929          
1 64188U 25113U   25357.65812328  .00028184  00000+0  95969-3 0  9999
2 64188  53.1591  84.3389 0000716 109.2367 250.8711 15.30213694 33420
STARLINK-33872          
1 64189U 25113V   25358.66305992  .00025470  00000+0  86901-3 0  9997
2 64189  53.1582  79.2360 0001225  86.6022 273.5119 15.30204085 33546
STARLINK-34214          
1 64190U 25113W   25358.65052701  .00043850  00000+0  14867-2 0  9998
2 64190  53.1574  79.8602 0000965  92.8474 267.2638 15.30138261 33575
STARLINK-34222          
1 64191U 25113X   25358.65578581  .00042118  00000+0  14260-2 0  9991
2 64191  53.1579  79.8979 0001576  87.6192 272.4990 15.30201940 33536
